OBJECT_NAME,OBJECT_ID,EPOCH,MEAN_MOTION,ECCENTRICITY,INCLINATION,RA_OF_ASC_NODE,ARG_OF_PERICENTER,MEAN_ANOMALY,EPHEMERIS_TYPE,CLASSIFICATION_TYPE,NORAD_CAT_ID,ELEMENT_SET_NO,REV_AT_EPOCH,BSTAR,MEAN_MOTION_DOT,MEAN_MOTION_DDOT
CENTISPACE-1 GROUP 05 OBJECT J,2026-138J,2026-07-01T11:21:20.820096,14.15848329,.00085929,55.1401,228.3805,312.4231,47.6016,0,U,69636,999,201,-.1301205E-3,-.411E-5,0
VICTUS HAZE PUMA,2026-142A,2026-07-01T15:00:46.949760,15.20798415,.00215211,97.4464,80.0858,312.1981,47.7427,0,U,69646,999,186,.19456864E-3,.4244E-4,0
HOKUSHIN-1,1998-067YH,2026-07-01T12:03:22.735008,15.50444824,.00061372,51.6308,229.1614,278.1170,81.9123,0,U,69648,999,187,.44715939E-3,.25564E-3,0
STARLINK-37656,2026-143A,2026-07-01T14:00:01.999872,15.80865714,.00006191,97.2831,226.1559,144.7908,129.4394,0,U,69649,999,277,-.10323622E-2,-.193984E-2,0
STARLINK-37646,2026-143B,2026-07-01T14:00:01.999872,15.80784015,.00015192,97.2830,226.1717,83.0952,223.2186,0,U,69650,999,277,.47843291E-3,.92342E-3,0
STARLINK-37749,2026-143C,2026-07-01T14:00:01.999872,15.80729047,.00016156,97.2830,226.1765,96.7804,220.6240,0,U,69651,999,277,.22733338E-3,.43448E-3,0
STARLINK-37819,2026-143D,2026-07-01T14:00:01.999872,15.80742867,.00015858,97.2832,226.1641,95.9869,193.5267,0,U,69652,999,277,.56137892E-3,.108373E-2,0
STARLINK-37729,2026-143E,2026-07-01T14:00:01.999872,15.80782546,.00008768,97.2833,226.1742,85.4017,227.4756,0,U,69653,999,277,.21819667E-3,.41788E-3,0
STARLINK-37838,2026-143F,2026-07-01T14:00:01.999872,15.80738348,.00014031,97.2834,226.1653,95.8063,197.8170,0,U,69654,999,277,.66087813E-3,.127865E-2,0
STARLINK-37884,2026-143G,2026-07-01T14:00:01.999872,15.80799952,.00017707,97.2833,226.1859,129.9805,212.1311,0,U,69655,999,277,.13349333E-3,.25485E-3,0
STARLINK-37876,2026-143H,2026-07-01T14:00:01.999872,15.80767167,.00009339,97.2829,226.1770,104.5217,215.4676,0,U,69656,999,267,.35445977E-3,.68132E-3,0
STARLINK-37784,2026-143J,2026-07-01T14:00:01.999872,15.80785243,.00012346,97.2830,226.1777,94.2217,227.5601,0,U,69657,999,267,.14281576E-3,.27261E-3,0
STARLINK-37851,2026-143K,2026-07-01T14:00:01.999872,15.80749722,.00011388,97.2830,226.1882,88.5540,258.8315,0,U,69658,999,266,.59690951E-3,.115367E-2,0
STARLINK-37229,2026-143L,2026-07-01T14:00:01.999872,15.80723729,.00016795,97.2831,226.1684,85.5640,215.2112,0,U,69659,999,271,.29081838E-3,.55686E-3,0
STARLINK-37556,2026-143M,2026-07-01T14:00:01.999872,15.80742817,.00014143,97.2830,226.1734,109.9483,201.2486,0,U,69660,999,271,.64492943E-3,.124757E-2,0
STARLINK-37867,2026-143N,2026-07-01T14:00:01.999872,15.80782732,.00013205,97.2828,226.1940,93.1984,266.9758,0,U,69661,999,267,.57376161E-3,.111E-2,0
STARLINK-37852,2026-143P,2026-07-01T14:00:01.999872,15.80787732,.00012313,97.2828,226.1736,94.4554,219.7628,0,U,69662,999,267,.12931033E-3,.24665E-3,0
STARLINK-37554,2026-143Q,2026-07-01T14:00:01.999872,15.80778368,.00013232,97.2832,226.1905,106.5731,245.8189,0,U,69663,999,271,.26322623E-3,.50484E-3,0
STARLINK-37830,2026-143R,2026-07-01T14:00:01.999872,15.80792407,.00008735,97.2828,226.1755,105.5279,213.3170,0,U,69664,999,266,.4263537E-4,.8023E-4,0
STARLINK-37837,2026-143S,2026-07-01T14:00:01.999872,15.80781283,.00006332,97.2833,226.1923,114.2276,241.9485,0,U,69665,999,267,.26012263E-3,.49888E-3,0
STARLINK-37943,2026-143T,2026-07-01T14:00:01.999872,15.80811503,.00022071,97.2828,226.1869,140.6280,205.2841,0,U,69666,999,267,-.51849555E-4,-.10061E-3,0
STARLINK-37941,2026-143U,2026-07-01T14:00:01.999872,15.80776754,.00012559,97.2830,226.1837,100.9900,236.7554,0,U,69667,999,267,.19577363E-3,.37452E-3,0
STARLINK-37930,2026-143V,2026-07-01T14:00:01.999872,15.80782862,.00013666,97.2826,226.1866,102.8384,240.9398,0,U,69668,999,267,.11056281E-3,.21055E-3,0
STARLINK-37945,2026-143W,2026-07-01T14:00:01.999872,15.80773282,.00010266,97.2828,226.1913,100.1629,253.5674,0,U,69669,999,267,.21758516E-3,.41653E-3,0
STARLINK-37948,2026-143X,2026-07-01T14:00:01.999872,15.80977504,.00013876,97.2830,226.2264,99.3089,335.2154,0,U,69670,999,268,-.13185512E-2,-.247515E-2,0
STARLINK-37949,2026-143Y,2026-07-01T14:00:01.999872,15.80806664,.00011285,97.2831,226.2132,80.7903,324.4853,0,U,69671,999,268,.1886253E-3,.36122E-3,0
