CENTISPACE-1 GROUP 05 O*
1 69636U 26138J   26182.47315764 -.00000411  00000+0 -13012-3 0  9993
2 69636  55.1401 228.3805 0008592 312.4231  47.6016 14.15848329  2018
VICTUS HAZE PUMA        
1 69646U 26142A   26182.62554340  .00004244  00000+0  19457-3 0  9996
2 69646  97.4464  80.0858 0021521 312.1981  47.7427 15.20798415  1860
HOKUSHIN-1              
1 69648U 98067YH  26182.50234647  .00025564  00000+0  44716-3 0  9999
2 69648  51.6308 229.1614 0006137 278.1170  81.9123 15.50444824  1873
STARLINK-37656          
1 69649U 26143A   26182.58335648 -.00193984  00000+0 -10324-2 0  9998
2 69649  97.2831 226.1559 0000619 144.7908 129.4394 15.80865714  2778
STARLINK-37646          
1 69650U 26143B   26182.58335648  .00092342  00000+0  47843-3 0  9991
2 69650  97.2830 226.1717 0001519  83.0952 223.2186 15.80784015  2775
STARLINK-37749          
1 69651U 26143C   26182.58335648  .00043448  00000+0  22733-3 0  9996
2 69651  97.2830 226.1765 0001615  96.7804 220.6240 15.80729047  2779
STARLINK-37819          
1 69652U 26143D   26182.58335648  .00108373  00000+0  56138-3 0  9992
2 69652  97.2832 226.1641 0001585  95.9869 193.5267 15.80742867  2775
STARLINK-37729          
1 69653U 26143E   26182.58335648  .00041788  00000+0  21820-3 0  9999
2 69653  97.2833 226.1742 0000876  85.4017 227.4756 15.80782546  2778
STARLINK-37838          
1 69654U 26143F   26182.58335648  .00127865  00000+0  66088-3 0  9996
2 69654  97.2834 226.1653 0001403  95.8063 197.8170 15.80738348  2775
STARLINK-37884          
1 69655U 26143G   26182.58335648  .00025485  00000+0  13349-3 0  9994
2 69655  97.2833 226.1859 0001770 129.9805 212.1311 15.80799952  2779
STARLINK-37876          
1 69656U 26143H   26182.58335648  .00068132  00000+0  35446-3 0  9993
2 69656  97.2829 226.1770 0000933 104.5217 215.4676 15.80767167  2675
STARLINK-37784          
1 69657U 26143J   26182.58335648  .00027261  00000+0  14282-3 0  9997
2 69657  97.2830 226.1777 0001234  94.2217 227.5601 15.80785243  2672
STARLINK-37851          
1 69658U 26143K   26182.58335648  .00115367  00000+0  59691-3 0  9996
2 69658  97.2830 226.1882 0001138  88.5540 258.8315 15.80749722  2668
STARLINK-37229          
1 69659U 26143L   26182.58335648  .00055686  00000+0  29082-3 0  9995
2 69659  97.2831 226.1684 0001679  85.5640 215.2112 15.80723729  2715
STARLINK-37556          
1 69660U 26143M   26182.58335648  .00124757  00000+0  64493-3 0  9998
2 69660  97.2830 226.1734 0001414 109.9483 201.2486 15.80742817  2713
STARLINK-37867          
1 69661U 26143N   26182.58335648  .00111000  00000+0  57376-3 0  9998
2 69661  97.2828 226.1940 0001320  93.1984 266.9758 15.80782732  2671
STARLINK-37852          
1 69662U 26143P   26182.58335648  .00024665  00000+0  12931-3 0  9997
2 69662  97.2828 226.1736 0001231  94.4554 219.7628 15.80787732  2670
STARLINK-37554          
1 69663U 26143Q   26182.58335648  .00050484  00000+0  26323-3 0  9996
2 69663  97.2832 226.1905 0001323 106.5731 245.8189 15.80778368  2710
STARLINK-37830          
1 69664U 26143R   26182.58335648  .00008023  00000+0  42635-4 0  9994
2 69664  97.2828 226.1755 0000873 105.5279 213.3170 15.80792407  2668
STARLINK-37837          
1 69665U 26143S   26182.58335648  .00049888  00000+0  26012-3 0  9999
2 69665  97.2833 226.1923 0000633 114.2276 241.9485 15.80781283  2677
STARLINK-37943          
1 69666U 26143T   26182.58335648 -.00010061  00000+0 -51850-4 0  9992
2 69666  97.2828 226.1869 0002207 140.6280 205.2841 15.80811503  2676
STARLINK-37941          
1 69667U 26143U   26182.58335648  .00037452  00000+0  19577-3 0  9993
2 69667  97.2830 226.1837 0001255 100.9900 236.7554 15.80776754  2673
STARLINK-37930          
1 69668U 26143V   26182.58335648  .00021055  00000+0  11056-3 0  9990
2 69668  97.2826 226.1866 0001366 102.8384 240.9398 15.80782862  2671
STARLINK-37945          
1 69669U 26143W   26182.58335648  .00041653  00000+0  21759-3 0  9998
2 69669  97.2828 226.1913 0001026 100.1629 253.5674 15.80773282  2676
STARLINK-37948          
1 69670U 26143X   26182.58335648 -.00247515  00000+0 -13186-2 0  9991
2 69670  97.2830 226.2264 0001387  99.3089 335.2154 15.80977504  2685
STARLINK-37949          
1 69671U 26143Y   26182.58335648  .00036122  00000+0  18863-3 0  9998
2 69671  97.2831 226.2132 0001128  80.7903 324.4853 15.80806664  2687
